*******************************************************************************
Ephemeris / WWW_USER Mon Mar 24 08:52:46 2025 Pasadena, USA      / Horizons    
*******************************************************************************
Target body name: (2018 PC20)                     {source: JPL#4}
Center body name: Earth (399)                     {source: DE441}
Center-site name: Mauna Kea
*******************************************************************************
Start time      : A.D. 2019-Jan-22 04:17:00.0000 UT      
Stop  time      : A.D. 2019-Jan-22 16:49:00.0000 UT      
Step-size       : 1 minutes
*******************************************************************************
Target pole/equ : undefined
Target radii    : undefined                                                    
Center geodetic : 204.5278, 19.8260847, 4.21024   {E-lon(deg),Lat(deg),Alt(km)}
Center cylindric: 204.5278, 6006.35451, 2151.0229 {E-lon(deg),Dxy(km),Dz(km)}
Center pole/equ : ITRF93                          {East-longitude positive}
Center radii    : 6378.137, 6378.137, 6356.752 km {Equator_a, b, pole_c}       
Target primary  : Sun
Vis. interferer : MOON (R_eq= 1737.400) km        {source: DE441}
Rel. light bend : Sun                             {source: DE441}
Rel. lght bnd GM: 1.3271E+11 km^3/s^2                                          
Small-body perts: Yes                             {source: SB441-N16}
Atmos refraction: NO (AIRLESS)
RA format       : HMS
Time format     : CAL 
Calendar mode   : Mixed Julian/Gregorian
RTS-only print  : NO       
EOP file        : eop.250321.p250617                                           
EOP coverage    : DATA-BASED 1962-JAN-20 TO 2025-MAR-21. PREDICTS-> 2025-JUN-16
Units conversion: 1 au= 149597870.700 km, c= 299792.458 km/s, 1 day= 86400.0 s 
Table cut-offs 1: Elevation (-90.0deg=NO ),Airmass (>38.000=NO), Daylight (YES)
Table cut-offs 2: Solar elongation (  0.0,180.0=NO ),Local Hour Angle( 0.0=NO )
Table cut-offs 3: RA/DEC angular rate (     0.0=NO )                           
*******************************************************************************
Initial IAU76/J2000 heliocentric ecliptic osculating elements (au, days, deg.):
  EPOCH=  2458343.5 ! 2018-Aug-13.00 (TDB)         Residual RMS= .24519        
   EC= .404352607301711    QR= 1.018354806317198   TP= 2458318.6524357731      
   OM= 139.299704166656    W=  153.5303944744985   IN= 8.986086735514593       
  Equivalent ICRF heliocentric cartesian coordinates (au, au/d):
   X= 8.116079301925467E-01  Y=-6.140581064636024E-01  Z=-2.698058679324596E-01
  VX= 1.436448164656351E-02 VY= 1.329561442287599E-02 VZ= 2.429594529488231E-03
Asteroid physical parameters (km, seconds, rotational period in hours):        
   GM= n.a.                RAD= n.a.               ROTPER= n.a.                
   H= 25.2                 G= .150                 B-V= n.a.                   
                           ALBEDO= n.a.            STYP= n.a.                  
*******************************************************************************
 Date__(UT)__HR:MN     R.A._________(ICRF)_________DEC
******************************************************
$$SOE
 2019-Jan-22 14:32  m  01 58 42.479541 +01 30 30.41773
 2019-Jan-22 14:33  m  01 58 42.544377 +01 30 30.98460
 2019-Jan-22 14:34  m  01 58 42.609215 +01 30 31.55147
 2019-Jan-22 14:35  m  01 58 42.674057 +01 30 32.11833
 2019-Jan-22 14:36  m  01 58 42.738901 +01 30 32.68520
 2019-Jan-22 14:37  m  01 58 42.803748 +01 30 33.25207
 2019-Jan-22 14:38  m  01 58 42.868597 +01 30 33.81894
 2019-Jan-22 14:39  m  01 58 42.933450 +01 30 34.38581
 2019-Jan-22 14:40  m  01 58 42.998305 +01 30 34.95268
 2019-Jan-22 14:41  m  01 58 43.063162 +01 30 35.51954
 2019-Jan-22 14:42  m  01 58 43.128023 +01 30 36.08641
 2019-Jan-22 14:43  m  01 58 43.192886 +01 30 36.65328
 2019-Jan-22 14:44  m  01 58 43.257751 +01 30 37.22015
 2019-Jan-22 14:45  m  01 58 43.322620 +01 30 37.78702
 2019-Jan-22 14:46  m  01 58 43.387490 +01 30 38.35389
 2019-Jan-22 14:47  m  01 58 43.452363 +01 30 38.92076
 2019-Jan-22 14:48  m  01 58 43.517239 +01 30 39.48763
 2019-Jan-22 14:49  m  01 58 43.582117 +01 30 40.05450
 2019-Jan-22 14:50  m  01 58 43.646998 +01 30 40.62138
 2019-Jan-22 14:51  m  01 58 43.711881 +01 30 41.18825
 2019-Jan-22 14:52  m  01 58 43.776767 +01 30 41.75512
 2019-Jan-22 14:53  m  01 58 43.841655 +01 30 42.32199
 2019-Jan-22 14:54  m  01 58 43.906545 +01 30 42.88886
 2019-Jan-22 14:55  m  01 58 43.971437 +01 30 43.45574
 2019-Jan-22 14:56  m  01 58 44.036332 +01 30 44.02261
 2019-Jan-22 14:57  m  01 58 44.101229 +01 30 44.58948
 2019-Jan-22 14:58  m  01 58 44.166128 +01 30 45.15636
 2019-Jan-22 14:59  m  01 58 44.231030 +01 30 45.72323
 2019-Jan-22 15:00  m  01 58 44.295934 +01 30 46.29011
 2019-Jan-22 15:01  m  01 58 44.360840 +01 30 46.85698
 2019-Jan-22 15:02  m  01 58 44.425748 +01 30 47.42386
 2019-Jan-22 15:03  m  01 58 44.490658 +01 30 47.99073
 2019-Jan-22 15:04  m  01 58 44.555570 +01 30 48.55761
 2019-Jan-22 15:05  m  01 58 44.620484 +01 30 49.12448
 2019-Jan-22 15:06  m  01 58 44.685401 +01 30 49.69136
 2019-Jan-22 15:07  m  01 58 44.750319 +01 30 50.25824
 2019-Jan-22 15:08  m  01 58 44.815239 +01 30 50.82511
 2019-Jan-22 15:09  m  01 58 44.880161 +01 30 51.39199
 2019-Jan-22 15:10  m  01 58 44.945085 +01 30 51.95887
 2019-Jan-22 15:11  m  01 58 45.010012 +01 30 52.52575
 2019-Jan-22 15:12  m  01 58 45.074939 +01 30 53.09263
 2019-Jan-22 15:13  m  01 58 45.139869 +01 30 53.65951
 2019-Jan-22 15:14  m  01 58 45.204801 +01 30 54.22639
 2019-Jan-22 15:15  m  01 58 45.269734 +01 30 54.79327
 2019-Jan-22 15:16  m  01 58 45.334669 +01 30 55.36015
 2019-Jan-22 15:17  m  01 58 45.399606 +01 30 55.92703
 2019-Jan-22 15:18  m  01 58 45.464545 +01 30 56.49391
 2019-Jan-22 15:19  m  01 58 45.529485 +01 30 57.06079
 2019-Jan-22 15:20  m  01 58 45.594427 +01 30 57.62767
 2019-Jan-22 15:21  m  01 58 45.659371 +01 30 58.19456
 2019-Jan-22 15:22  m  01 58 45.724316 +01 30 58.76144
 2019-Jan-22 15:23  m  01 58 45.789263 +01 30 59.32832
 2019-Jan-22 15:24  m  01 58 45.854211 +01 30 59.89521
 2019-Jan-22 15:25  m  01 58 45.919161 +01 31 00.46209
 2019-Jan-22 15:26  m  01 58 45.984112 +01 31 01.02898
 2019-Jan-22 15:27  m  01 58 46.049065 +01 31 01.59586
 2019-Jan-22 15:28  m  01 58 46.114020 +01 31 02.16275
 2019-Jan-22 15:29  m  01 58 46.178975 +01 31 02.72963
 2019-Jan-22 15:30  m  01 58 46.243932 +01 31 03.29652
 2019-Jan-22 15:31  m  01 58 46.308891 +01 31 03.86341
 2019-Jan-22 15:32  m  01 58 46.373851 +01 31 04.43029
 2019-Jan-22 15:33  m  01 58 46.438812 +01 31 04.99718
 2019-Jan-22 15:34  m  01 58 46.503774 +01 31 05.56407
 2019-Jan-22 15:35  m  01 58 46.568738 +01 31 06.13096
 2019-Jan-22 15:36  m  01 58 46.633703 +01 31 06.69785
 2019-Jan-22 15:37  m  01 58 46.698669 +01 31 07.26474
 2019-Jan-22 15:38  m  01 58 46.763636 +01 31 07.83163
 2019-Jan-22 15:39  m  01 58 46.828604 +01 31 08.39852
 2019-Jan-22 15:40  m  01 58 46.893574 +01 31 08.96541
 2019-Jan-22 15:41  m  01 58 46.958545 +01 31 09.53230
 2019-Jan-22 15:42  m  01 58 47.023516 +01 31 10.09919
 2019-Jan-22 15:43 Am  01 58 47.088489 +01 31 10.66608
 2019-Jan-22 15:44 Am  01 58 47.153463 +01 31 11.23298
 2019-Jan-22 15:45 Am  01 58 47.218438 +01 31 11.79987
 2019-Jan-22 15:46 Am  01 58 47.283413 +01 31 12.36676
 2019-Jan-22 15:47 Am  01 58 47.348390 +01 31 12.93366
 2019-Jan-22 15:48 Am  01 58 47.413367 +01 31 13.50055
 2019-Jan-22 15:49 Am  01 58 47.478346 +01 31 14.06745
 2019-Jan-22 15:50 Am  01 58 47.543325 +01 31 14.63434
 2019-Jan-22 15:51 Am  01 58 47.608305 +01 31 15.20124
 2019-Jan-22 15:52 Am  01 58 47.673286 +01 31 15.76814
 2019-Jan-22 15:53 Am  01 58 47.738268 +01 31 16.33504
 2019-Jan-22 15:54 Am  01 58 47.803250 +01 31 16.90193
 2019-Jan-22 15:55 Am  01 58 47.868233 +01 31 17.46883
 2019-Jan-22 15:56 Am  01 58 47.933217 +01 31 18.03573
 2019-Jan-22 15:57 Am  01 58 47.998201 +01 31 18.60263
 2019-Jan-22 15:58 Am  01 58 48.063187 +01 31 19.16953
 2019-Jan-22 15:59 Am  01 58 48.128172 +01 31 19.73643
 2019-Jan-22 16:00 Am  01 58 48.193159 +01 31 20.30333
 2019-Jan-22 16:01 Am  01 58 48.258145 +01 31 20.87023
 2019-Jan-22 16:02 Am  01 58 48.323133 +01 31 21.43713
 2019-Jan-22 16:03 Am  01 58 48.388120 +01 31 22.00404
 2019-Jan-22 16:04 Am  01 58 48.453109 +01 31 22.57094
 2019-Jan-22 16:05 Am  01 58 48.518098 +01 31 23.13784
 2019-Jan-22 16:06 Am  01 58 48.583087 +01 31 23.70474
 2019-Jan-22 16:07 Am  01 58 48.648076 +01 31 24.27165
 2019-Jan-22 16:08 Am  01 58 48.713066 +01 31 24.83855
 2019-Jan-22 16:09 Am  01 58 48.778056 +01 31 25.40546
 2019-Jan-22 16:10 Nm  01 58 48.843047 +01 31 25.97236
 2019-Jan-22 16:11 Nm  01 58 48.908038 +01 31 26.53927
 2019-Jan-22 16:12 Nm  01 58 48.973029 +01 31 27.10618
 2019-Jan-22 16:13 Nm  01 58 49.038020 +01 31 27.67309
 2019-Jan-22 16:14 Nm  01 58 49.103011 +01 31 28.23999
 2019-Jan-22 16:15 Nm  01 58 49.168003 +01 31 28.80690
 2019-Jan-22 16:16 Nm  01 58 49.232995 +01 31 29.37381
 2019-Jan-22 16:17 Nm  01 58 49.297987 +01 31 29.94072
 2019-Jan-22 16:18 Nm  01 58 49.362979 +01 31 30.50763
 2019-Jan-22 16:19 Nm  01 58 49.427971 +01 31 31.07454
 2019-Jan-22 16:20 Nm  01 58 49.492963 +01 31 31.64145
 2019-Jan-22 16:21 Nm  01 58 49.557955 +01 31 32.20836
 2019-Jan-22 16:22 Nm  01 58 49.622947 +01 31 32.77527
 2019-Jan-22 16:23 Nm  01 58 49.687939 +01 31 33.34219
 2019-Jan-22 16:24 Nm  01 58 49.752930 +01 31 33.90910
 2019-Jan-22 16:25 Nm  01 58 49.817922 +01 31 34.47601
 2019-Jan-22 16:26 Nm  01 58 49.882914 +01 31 35.04293
 2019-Jan-22 16:27 Nm  01 58 49.947905 +01 31 35.60984
 2019-Jan-22 16:28 Nm  01 58 50.012896 +01 31 36.17676
 2019-Jan-22 16:29 Nm  01 58 50.077888 +01 31 36.74367
 2019-Jan-22 16:30 Nm  01 58 50.142878 +01 31 37.31059
 2019-Jan-22 16:31 Nm  01 58 50.207869 +01 31 37.87750
 2019-Jan-22 16:32 Nm  01 58 50.272859 +01 31 38.44442
 2019-Jan-22 16:33 Nm  01 58 50.337849 +01 31 39.01134
 2019-Jan-22 16:34 Nm  01 58 50.402838 +01 31 39.57826
